KUIPER-00117            
1 65949U 25228C   26064.24105341  .00002489  00000+0  35528-3 0  9998
2 65949  51.9006  17.7692 0000883  91.4125 268.6939 14.79939421 22601
KUIPER-00121            
1 65950U 25228D   26064.55026224  .00001268  00000+0  19531-3 0  9996
2 65950  51.9020  11.3966 0001142 112.7660 247.3423 14.79938855 22728
KUIPER-00122            
1 65951U 25228E   26064.06575563  .00002746  00000+0  39032-3 0  9998
2 65951  51.9023  23.5060 0000670  97.9430 262.1608 14.79793574 22510
KUIPER-00123            
1 65952U 25228F   26064.57344006  .00006925  00000+0  93563-3 0  9993
2 65952  51.9003  21.2951 0001090  93.0848 267.0239 14.79972198 22582
KUIPER-00124            
1 65953U 25228G   26064.58139272  .00002321  00000+0  33328-3 0  9991
2 65953  51.9010  13.7479 0000422  80.0047 280.0963 14.79937815 22695
KUIPER-00125            
1 65954U 25228H   26064.53004401  .00007192  00000+0  97105-3 0  9996
2 65954  51.9032 358.9968 0000930 115.6003 244.5056 14.79950877 22891
KUIPER-00126            
1 65955U 25228J   26064.60977471  .00000343  00000+0  74029-4 0  9993
2 65955  51.9000  18.6431 0001715  81.0911 279.0245 14.79922949 22621
KUIPER-00127            
1 65956U 25228K   26064.55839231  .00004451  00000+0  66537-3 0  9997
2 65956  51.9019  10.1949 0001306 179.2301 180.8662 14.76364778 22744
KUIPER-00128            
1 65957U 25228L   26064.11122420  .00006452  00000+0  87596-3 0  9996
2 65957  51.9024  13.3620 0000803 102.5749 257.5303 14.79862455 22650
KUIPER-00129            
1 65958U 25228M   26064.55571022  .00007293  00000+0  98406-3 0  9997
2 65958  51.9031   6.3825 0000793  84.9224 275.1829 14.79957738 22790
KUIPER-00130            
1 65959U 25228N   26064.24931877  .00007311  00000+0  98509-3 0  9997
2 65959  51.9053  10.2429 0001199 106.4704 253.6390 14.80013766 13007
KUIPER-00134            
1 65960U 25228P   26064.49420142  .00046489  00000+0  12085-2 0  9997
2 65960  51.8781 340.7035 0005492 303.4881  56.5581 15.38458594 23149
KUIPER-00135            
1 65961U 25228Q   26064.55303599  .00007366  00000+0  99407-3 0  9996
2 65961  51.9053   8.9615 0001013  85.9479 274.1599 14.79938212 22757
KUIPER-00136            
1 65962U 25228R   26064.25174913  .00007800  00000+0  10523-2 0  9994
2 65962  51.9021   7.7674 0001380  99.1538 260.9581 14.79879638 22744
KUIPER-00137            
1 65963U 25228S   26063.03973790  .00008369  00000+0  10437-2 0  9995
2 65963  51.9034  10.5966 0000737  94.2766 265.8282 14.83109410 22605
KUIPER-00138            
1 65964U 25228T   26064.56106405 -.00002109  00000+0 -24783-3 0  9994
2 65964  51.9028   1.3496 0000596  95.1986 264.9045 14.79924381 22864
KUIPER-00140            
1 65965U 25228U   26064.08568261  .00006245  00000+0  84751-3 0  9998
2 65965  51.9009   6.0343 0000382 115.2047 244.8956 14.79931045 22753
